S-NET D                 
1 43186U 18014G   22178.31489335  .00000621  00000+0  57532-4 0  9996
2 43186  97.6583  83.8677 0009242 266.8358  93.1807 14.97945229240394
S-NET B                 
1 43187U 18014H   22178.51543615  .00000551  00000+0  51608-4 0  9991
2 43187  97.6578  84.0155 0009270 265.9167  94.0996 14.97943032240425
S-NET A                 
1 43188U 18014J   22177.71412091  .00000597  00000+0  55571-4 0  9999
2 43188  97.6585  83.2934 0009219 269.3514  90.6652 14.97941301240302
S-NET C                 
1 43189U 18014K   22177.71484047  .00000617  00000+0  57222-4 0  9998
2 43189  97.6580  83.2189 0009247 269.0729  90.9434 14.97938529238852
FENGMANIU-1 (FMN-1)     
1 43192U 18015A   22178.44457220  .00021656  00000+0  56434-3 0  9996
2 43192  97.5357 323.8254 0009847 358.1781  85.7717 15.38831548244983
SHAONIAN XING           
1 43199U 18015H   22178.41523973  .00012866  00000+0  38553-3 0  9994
2 43199  97.5142 318.9096 0012548  13.0771  71.8499 15.34561472244973
LUOJIA-1 01             
1 43485U 18048B   22178.50048580  .00000992  00000+0  14657-3 0  9990
2 43485  97.9341 259.5969 0011656 160.2484 199.9173 14.77374477219358
SURFSAT                 
1 43614U 18070B   22177.84288440  .00037938  00000+0  54458-3 0  9999
2 43614  93.0309 102.7395 0009537   2.8500 357.2816 15.55947812212521
CP7 (DAVE)              
1 43615U 18070C   22178.05234258  .00030612  00000+0  46089-3 0  9995
2 43615  93.0302 102.6750 0010159   4.5526 355.5827 15.54663356212528
ELFIN-B                 
1 43616U 18070D   22178.08407981  .00082773  00000+0  71374-3 0  9994
2 43616  93.0205 103.9404 0005383  11.1650 348.9739 15.68994151212866
ELFIN-A                 
1 43617U 18070E   22177.75444409  .00100555  00000+0  78061-3 0  9993
2 43617  93.0264 105.1701 0004016  16.2040 343.9359 15.71492054212869
CZ-4B R/B               
1 43656U 18081B   22178.37843180  .00000132  00000+0  56668-4 0  9996
2 43656  99.3988 313.0066 0209195 115.5784 246.7180 14.30579393191775
CUBEBEL-1 (BSUSAT-1)    
1 43666U 18083E   22178.58321238  .00007561  00000+0  32006-3 0  9999
2 43666  97.4196 207.1528 0011227 302.0161 189.2549 15.23412258203022
CHANGSHAGAOXIN (TY 4-01)
1 43669U 18083H   22178.57218395  .00007141  00000+0  31702-3 0  9996
2 43669  97.4139 203.0887 0007899 302.2344 176.7184 15.21835610202844
TEN-KOH                 
1 43677U 18084G   22178.34405112  .00000755  00000+0  81979-4 0  9992
2 43677  97.9655 308.4844 0014645 235.8152 124.1679 14.91120901199150
DIWATA-2B               
1 43678U 18084H   22178.50808069  .00000273  00000+0  32568-4 0  9994
2 43678  97.9718 311.8918 0008489 249.9173 110.1118 14.92183631199354
STARS-AO                
1 43679U 18084J   22177.90370971  .00001472  00000+0  14515-3 0  9997
2 43679  97.9757 313.2175 0007628 256.1102 103.9269 14.93595968199353
AUTCUBE 2               
1 43681U 18084K   22178.32646114  .00001469  00000+0  14717-3 0  9992
2 43681  97.9719 312.2831 0008026 248.6039 111.4323 14.92961912199327
IRVINE01                
1 43693U 18088D   22178.09441526  .00033026  00000+0  86441-3 0  9990
2 43693  85.0289 304.3060 0012741  80.0276 280.2412 15.38489501201706
ES'HAIL 2               
1 43700U 18090A   22177.83813024  .00000152  00000+0  00000+0 0  9996
2 43700   0.0186  66.8321 0001024  55.8023 119.8242  1.00274511 13122
FACSAT-1                
1 43721U 18096C   22178.54337770  .00016164  00000+0  45248-3 0  9990
2 43721  97.3512 258.3541 0013407  24.3603  99.8985 15.36629949199525
CENTAURI-2              
1 43722U 18096D   22177.71790491  .00021026  00000+0  52771-3 0  9994
2 43722  97.3560 259.5510 0012094  23.2970 336.8821 15.39959824199506
3CAT-1                  
1 43728U 18096K   22178.17633041  .00021383  00000+0  53526-3 0  9993
2 43728  97.3578 260.7668 0012024  25.1613 335.0217 15.40038451199615
INNOSAT-2               
1 43738U 18096V   22178.56377972  .00042706  00000+0  75324-3 0  9997
2 43738  97.3652 267.6155 0011662   6.0648 118.7364 15.50206941200073
REAKTOR HELLO WORLD     
1 43743U 18096AA  22178.44506935  .00010634  00000+0  32232-3 0  9999
2 43743  97.3533 258.2696 0015109  30.1481 330.0629 15.34208624199494
ELYSIUM STAR 2 & LFF    
1 43760U 18099C   22178.14612309  .00004571  00000+0  38451-3 0  9993
2 43760  97.6310 246.4737 0011450 220.5034 139.5337 14.98701245194576
2018-099D               
1 43761U 18099D   22177.96910429  .00000215  00000+0  24306-4 0  9993
2 43761  97.6213 244.4429 0012992 234.8094 125.1903 14.95893865194444
AISTECHSAT 2            
1 43768U 18099L   22178.13546613  .00001824  00000+0  16844-3 0  9994
2 43768  97.6169 243.1271 0009925 229.8701 130.1652 14.95788202194134
FOX-1CLIFF (AO-95)      
1 43770U 18099N   22178.15213639  .00001402  00000+0  12836-3 0  9997
2 43770  97.6213 244.2506 0012646 239.6740 120.3232 14.96484031194461
RANGE-A                 
1 43772U 18099Q   22178.14254861  .00003176  00000+0  27973-3 0  9998
2 43772  97.6323 245.9374 0012432 222.8489 137.1765 14.97119982194483
RANGE-B                 
1 43773U 18099R   22177.67557629  .00001456  00000+0  13451-3 0  9999
2 43773  97.6132 242.6545 0011981 227.0148 133.0070 14.96063848194373
2018-099T               
1 43775U 18099T   22178.13632330  .00001618  00000+0  14902-3 0  9998
2 43775  97.6208 244.3488 0013089 230.1364 129.8706 14.96028305194446
MOVE-II                 
1 43780U 18099Y   22177.90295182  .00002943  00000+0  25522-3 0  9990
2 43780  97.6240 245.1523 0011981 235.9099 124.0987 14.97786878194472
SNUSAT-2                
1 43782U 18099AA  22178.13129009  .00002369  00000+0  21253-3 0  9991
2 43782  97.6207 244.6943 0011299 221.5820 138.4544 14.96643084194481
SNUGLITE                
1 43784U 18099AC  22178.16749498  .00001462  00000+0  13234-3 0  9999
2 43784  97.6166 244.3707 0013675 233.0480 126.9490 14.96858187194510
ITASAT 1                
1 43786U 18099AE  22177.74334731  .00001981  00000+0  17856-3 0  9994
2 43786  97.6237 244.7759 0013381 232.7772 127.2229 14.96621664194440
KAZSCISAT-1             
1 43787U 18099AF  22178.15315201  .00002220  00000+0  19358-3 0  9998
2 43787  97.6162 244.3746 0012234 225.8386 134.1832 14.97816787194552
EAGLET-I                
1 43790U 18099AJ  22178.43969301  .00000816  00000+0  76222-4 0  9992
2 43790  97.6221 245.9886 0011979 235.0541 124.9556 14.96788455194284
ESEO                    
1 43792U 18099AL  22177.90998778  .00000449  00000+0  44796-4 0  9998
2 43792  97.6174 244.6773 0012044 234.0657 125.9448 14.96205632194243
CSIM-FD                 
1 43793U 18099AM  22178.13928071  .00004110  00000+0  34825-3 0  9994
2 43793  97.6254 246.2809 0011098 219.7525 140.2886 14.98473740194338
ASTROCAST 0.1           
1 43798U 18099AS  22178.15430866  .00002426  00000+0  21180-3 0  9999
2 43798  97.6252 246.1822 0011048 208.0191 152.0438 14.97689585194564
JY1SAT (JO-97)          
1 43803U 18099AX  22178.42638615  .00001342  00000+0  12100-3 0  9996
2 43803  97.6198 245.1999 0013448 230.3887 129.6148 14.97127540194566
SUOMI-100               
1 43804U 18099AY  22178.44485030  .00001682  00000+0  15084-3 0  9991
2 43804  97.6182 245.1380 0013928 230.4942 129.5049 14.97021541194574
AL-FARABI 2             
1 43805U 18099AZ  22178.22777175  .00002012  00000+0  17686-3 0  9990
2 43805  97.6223 245.4215 0013284 229.7667 130.2393 14.97602687194567
CENTAURI-1              
1 43809U 18099BD  22177.74433523  .00001795  00000+0  16171-3 0  9991
2 43809  97.6207 244.7673 0013422 233.4924 126.5063 14.96751269194163
CHOMPTT                 
1 43855U 18104G   22177.87522756  .00006011  00000+0  21996-3 0  9997
2 43855  85.0356  44.8698 0014513 194.4048 165.6786 15.27720366196168
DAVINCI                 
1 43857U 18104J   22177.90299297  .00028501  00000+0  75529-3 0  9993
2 43857  85.0266  42.7504 0009003 209.0458 151.0293 15.38160458196310
UWE-4                   
1 43880U 18111E   22178.01823979  .00002721  00000+0  23395-3 0  9990
2 43880  97.6682  84.1619 0009763 291.6960  68.3222 14.98207093189138
ZACUBE-2                
1 43907U 18111AH  22178.59877514  .00007329  00000+0  26987-3 0  9996
2 43907  97.1905  64.5373 0021630  47.6890  39.5556 15.27903569194846
MICRODRAGON             
1 43935U 19003D   22177.86495314  .00005197  00000+0  20433-3 0  9992
2 43935  97.1356 207.5618 0018236 136.8404 223.4268 15.25922881191137
AOBA VELOX-IV           
1 43940U 19003J   22178.05367699  .00026828  00000+0  71546-3 0  9999
2 43940  97.1252 213.6190 0019653 110.1684 250.1678 15.37918746191602
M6P                     
1 44109U 19018AF  22177.79278886  .00016900  00000+0  40792-3 0  9991
2 44109  97.3967 262.0340 0048587  94.5060 266.1738 15.40011648180893
FORMOSAT 7-4            
1 44350U 19036M   22177.75212362  .00003251  00000+0  17680-3 0  9997
2 44350  24.0008 319.6646 0005632 189.8927 170.1466 15.09439642164871
PAINANI 1               
1 44365U 19037A   22177.81111197  .00035487  00000+0  52121-3 0  9990
2 44365  44.9990 317.6983 0011750 283.4085  76.5498 15.54857540168693
METEOR-M2 2             
1 44387U 19038A   22178.55314847  .00000015  00000+0  26138-4 0  9993
2 44387  98.7231 139.2512 0000300 184.2113 175.9057 14.23713115154848
VDNH-80                 
1 44392U 19038G   22178.53059623  .00006459  00000+0  32598-3 0  9999
2 44392  97.6346 148.5442 0021407  95.5653  43.6967 15.17268599164373
D-STAR ONE (LIGHTSAT)   
1 44393U 19038H   22178.18729083  .00006790  00000+0  34214-3 0  9990
2 44393  97.6353 148.0829 0021693  97.9883 262.3813 15.17299841164514
AMGU-1 (AMURSAT)        
1 44394U 19038J   22178.18917118  .00007153  00000+0  35781-3 0  9993
2 44394  97.6347 148.0383 0021458  97.1351 263.2322 15.17539316164513
DOT-1                   
1 44399U 19038P   22177.89271877  .00003869  00000+0  20834-3 0  9993
2 44399  97.6391 146.5838 0024836 105.0474 255.3509 15.15175334164370
